{"type": "FeatureCollection", "features": [ {"type": "Feature", "properties": {"norad_id": 35109, "name": "FENGYUN 1C DEB", "group": "fengyun-1c-debris", "lat": 45.85760707167399, "lon": 159.0287885950111, "alt_km": 800.1679771239733, "timestamp": "2025-12-06T14:35:37.413919+00:00", "meta": {"OBJECT_NAME": "FENGYUN 1C DEB", "OBJECT_ID": "1999-025DKM", "EPOCH": "2025-12-04T06:12:38.801088", "MEAN_MOTION": 14.20856308, "ECCENTRICITY": 0.015369, "INCLINATION": 98.6153, "RA_OF_ASC_NODE": 327.7504, "ARG_OF_PERICENTER": 58.8036, "MEAN_ANOMALY": 302.8103, "EPHEMERIS_TYPE": 0, "CLASSIFICATION_TYPE": "U", "NORAD_CAT_ID": 35109, "ELEMENT_SET_NO": 999, "REV_AT_EPOCH": 64039, "BSTAR": 0.00051563, "MEAN_MOTION_DOT": 1.214e-05, "MEAN_MOTION_DDOT": 0}, "tle": {"line1": "1 35109U 99025DKM 25338.25878242  .00001214  00000+0  51563-3 0  9992", "line2": "2 35109  98.6153 327.7504 0153690  58.8036 302.8103 14.20856308640390"}}, "geometry": {"type": "Point", "coordinates": [159.0287885950111, 45.85760707167399]}}, {"type": "Feature", "properties": {"norad_id": 35111, "name": "FENGYUN 1C DEB", "group": "fengyun-1c-debris", "lat": -21.872723936403954, "lon": -124.90704836649024, "alt_km": 848.6853573130511, "timestamp": "2025-12-06T14:35:37.413930+00:00", "meta": {"OBJECT_NAME": "FENGYUN 1C DEB", "OBJECT_ID": "1999-025DKP", "EPOCH": "2025-12-05T12:06:31.003200", "MEAN_MOTION": 14.10949301, "ECCENTRICITY": 0.00215264, "INCLINATION": 99.4667, "RA_OF_ASC_NODE": 57.7715, "ARG_OF_PERICENTER": 240.7618, "MEAN_ANOMALY": 119.1399, "EPHEMERIS_TYPE": 0, "CLASSIFICATION_TYPE": "U", "NORAD_CAT_ID": 35111, "ELEMENT_SET_NO": 999, "REV_AT_EPOCH": 64042, "BSTAR": 0.00080865112, "MEAN_MOTION_DOT": 1.406e-05, "MEAN_MOTION_DDOT": 0}, "tle": {"line1": "1 35111U 99025DKP 25339.50452550  .00001406  00000+0  80865-3 0  9994", "line2": "2 35111  99.4667  57.7715 0021526 240.7618 119.1399 14.10949301640421"}}, "geometry": {"type": "Point", "coordinates": [-124.90704836649024, -21.872723936403954]}}, {"type": "Feature", "properties": {"norad_id": 35116, "name": "FENGYUN 1C DEB", "group": "fengyun-1c-debris", "lat": 42.375049693895335, "lon": -145.34805272923535, "alt_km": 790.0188452036609, "timestamp": "2025-12-06T14:35:37.413940+00:00", "meta": {"OBJECT_NAME": "FENGYUN 1C DEB", "OBJECT_ID": "1999-025DKU", "EPOCH": "2025-11-29T08:23:15.339840", "MEAN_MOTION": 14.24983182, "ECCENTRICITY": 0.00599996, "INCLINATION": 98.6639, "RA_OF_ASC_NODE": 19.4914, "ARG_OF_PERICENTER": 87.929, "MEAN_ANOMALY": 272.8759, "EPHEMERIS_TYPE": 0, "CLASSIFICATION_TYPE": "U", "NORAD_CAT_ID": 35116, "ELEMENT_SET_NO": 999, "REV_AT_EPOCH": 59769, "BSTAR": 0.0010519384, "MEAN_MOTION_DOT": 2.465e-05, "MEAN_MOTION_DDOT": 0}, "tle": {"line1": "1 35116U 99025DKU 25333.34948310  .00002465  00000+0  10519-2 0  9993", "line2": "2 35116  98.6639  19.4914 0059999  87.9290 272.8759 14.24983182597691"}}, "geometry": {"type": "Point", "coordinates": [-145.34805272923535, 42.375049693895335]}}, {"type": "Feature", "properties": {"norad_id": 35121, "name": "FENGYUN 1C DEB", "group": "fengyun-1c-debris", "lat": 41.974398484632516, "lon": -163.17436598114753, "alt_km": 835.6658460839026, "timestamp": "2025-12-06T14:35:37.413950+00:00", "meta": {"OBJECT_NAME": "FENGYUN 1C DEB", "OBJECT_ID": "1999-025DKZ", "EPOCH": "2025-11-23T20:23:41.984736", "MEAN_MOTION": 14.04733583, "ECCENTRICITY": 0.0157971, "INCLINATION": 98.3025, "RA_OF_ASC_NODE": 192.694, "ARG_OF_PERICENTER": 150.2058, "MEAN_ANOMALY": 210.8223, "EPHEMERIS_TYPE": 0, "CLASSIFICATION_TYPE": "U", "NORAD_CAT_ID": 35121, "ELEMENT_SET_NO": 999, "REV_AT_EPOCH": 60826, "BSTAR": 0.00039097454, "MEAN_MOTION_DOT": 6.63e-06, "MEAN_MOTION_DDOT": 0}, "tle": {"line1": "1 35121U 99025DKZ 25327.84979149  .00000663  00000+0  39097-3 0  9992", "line2": "2 35121  98.3025 192.6940 0157971 150.2058 210.8223 14.04733583608261"}}, "geometry": {"type": "Point", "coordinates": [-163.17436598114753, 41.974398484632516]}}, {"type": "Feature", "properties": {"norad_id": 35122, "name": "FENGYUN 1C DEB", "group": "fengyun-1c-debris", "lat": 60.28199637000037, "lon": -165.28880564215612, "alt_km": 829.4177267442328, "timestamp": "2025-12-06T14:35:37.413960+00:00", "meta": {"OBJECT_NAME": "FENGYUN 1C DEB", "OBJECT_ID": "1999-025DLA", "EPOCH": "2025-12-06T07:14:30.669504", "MEAN_MOTION": 14.14113631, "ECCENTRICITY": 0.00250368, "INCLINATION": 98.6724, "RA_OF_ASC_NODE": 358.9052, "ARG_OF_PERICENTER": 175.8226, "MEAN_ANOMALY": 184.3161, "EPHEMERIS_TYPE": 0, "CLASSIFICATION_TYPE": "U", "NORAD_CAT_ID": 35122, "ELEMENT_SET_NO": 999, "REV_AT_EPOCH": 63776, "BSTAR": 0.00051441164, "MEAN_MOTION_DOT": 9.4e-06, "MEAN_MOTION_DDOT": 0}, "tle": {"line1": "1 35122U 99025DLA 25340.30174386  .00000940  00000+0  51441-3 0  9994", "line2": "2 35122  98.6724 358.9052 0025036 175.8226 184.3161 14.14113631637768"}}, "geometry": {"type": "Point", "coordinates": [-165.28880564215612, 60.28199637000037]}}, {"type": "Feature", "properties": {"norad_id": 35123, "name": "FENGYUN 1C DEB", "group": "fengyun-1c-debris", "lat": 49.719956414838094, "lon": 152.12902069383077, "alt_km": 780.353323864987, "timestamp": "2025-12-06T14:35:37.413970+00:00", "meta": {"OBJECT_NAME": "FENGYUN 1C DEB", "OBJECT_ID": "1999-025DLB", "EPOCH": "2025-12-05T23:10:58.256256", "MEAN_MOTION": 14.2418948, "ECCENTRICITY": 0.0049671, "INCLINATION": 99.1223, "RA_OF_ASC_NODE": 162.3921, "ARG_OF_PERICENTER": 95.3297, "MEAN_ANOMALY": 265.355, "EPHEMERIS_TYPE": 0, "CLASSIFICATION_TYPE": "U", "NORAD_CAT_ID": 35123, "ELEMENT_SET_NO": 999, "REV_AT_EPOCH": 60977, "BSTAR": 0.00090983273, "MEAN_MOTION_DOT": 2.077e-05, "MEAN_MOTION_DDOT": 0}, "tle": {"line1": "1 35123U 99025DLB 25339.96595204  .00002077  00000+0  90983-3 0  9998", "line2": "2 35123  99.1223 162.3921 0049671  95.3297 265.3550 14.24189480609774"}}, "geometry": {"type": "Point", "coordinates": [152.12902069383077, 49.719956414838094]}}, {"type": "Feature", "properties": {"norad_id": 35125, "name": "FENGYUN 1C DEB", "group": "fengyun-1c-debris", "lat": -60.41220995597362, "lon": 6.708868245760966, "alt_km": 752.3973082966131, "timestamp": "2025-12-06T14:35:37.413980+00:00", "meta": {"OBJECT_NAME": "FENGYUN 1C DEB", "OBJECT_ID": "1999-025DLD", "EPOCH": "2025-12-02T18:42:43.848288", "MEAN_MOTION": 14.33013492, "ECCENTRICITY": 0.00523769, "INCLINATION": 98.2163, "RA_OF_ASC_NODE": 348.3348, "ARG_OF_PERICENTER": 324.6836, "MEAN_ANOMALY": 35.0884, "EPHEMERIS_TYPE": 0, "CLASSIFICATION_TYPE": "U", "NORAD_CAT_ID": 35125, "ELEMENT_SET_NO": 999, "REV_AT_EPOCH": 31139, "BSTAR": 0.0017995881, "MEAN_MOTION_DOT": 4.964e-05, "MEAN_MOTION_DDOT": 0}, "tle": {"line1": "1 35125U 99025DLD 25336.77967417  .00004964  00000+0  17996-2 0  9994", "line2": "2 35125  98.2163 348.3348 0052376 324.6836  35.0884 14.33013492311390"}}, "geometry": {"type": "Point", "coordinates": [6.708868245760966, -60.41220995597362]}}, {"type": "Feature", "properties": {"norad_id": 35130, "name": "FENGYUN 1C DEB", "group": "fengyun-1c-debris", "lat": -45.34019379720545, "lon": -5.062284233600313, "alt_km": 582.0935054852416, "timestamp": "2025-12-06T14:35:37.413990+00:00", "meta": {"OBJECT_NAME": "FENGYUN 1C DEB", "OBJECT_ID": "1999-025DLJ", "EPOCH": "2025-12-03T19:51:08.700192", "MEAN_MOTION": 14.97420249, "ECCENTRICITY": 0.0006062, "INCLINATION": 99.0324, "RA_OF_ASC_NODE": 180.9884, "ARG_OF_PERICENTER": 103.2228, "MEAN_ANOMALY": 256.9666, "EPHEMERIS_TYPE": 0, "CLASSIFICATION_TYPE": "U", "NORAD_CAT_ID": 35130, "ELEMENT_SET_NO": 999, "REV_AT_EPOCH": 64780, "BSTAR": 0.011515, "MEAN_MOTION_DOT": 0.00136513, "MEAN_MOTION_DDOT": 0}, "tle": {"line1": "1 35130U 99025DLJ 25337.82718403  .00136513  00000+0  11515-1 0  9992", "line2": "2 35130  99.0324 180.9884 0006062 103.2228 256.9666 14.97420249647808"}}, "geometry": {"type": "Point", "coordinates": [-5.062284233600313, -45.34019379720545]}}, {"type": "Feature", "properties": {"norad_id": 35135, "name": "FENGYUN 1C DEB", "group": "fengyun-1c-debris", "lat": -69.27550183782787, "lon": 146.11150885369707, "alt_km": 787.4385500054359, "timestamp": "2025-12-06T14:35:37.414000+00:00", "meta": {"OBJECT_NAME": "FENGYUN 1C DEB", "OBJECT_ID": "1999-025DLP", "EPOCH": "2025-12-06T06:39:27.921600", "MEAN_MOTION": 14.22516018, "ECCENTRICITY": 0.00810833, "INCLINATION": 98.5651, "RA_OF_ASC_NODE": 349.2636, "ARG_OF_PERICENTER": 303.4126, "MEAN_ANOMALY": 55.9315, "EPHEMERIS_TYPE": 0, "CLASSIFICATION_TYPE": "U", "NORAD_CAT_ID": 35135, "ELEMENT_SET_NO": 999, "REV_AT_EPOCH": 87732, "BSTAR": 0.0008831478, "MEAN_MOTION_DOT": 1.995e-05, "MEAN_MOTION_DDOT": 0}, "tle": {"line1": "1 35135U 99025DLP 25340.27740650  .00001995  00000+0  88315-3 0  9998", "line2": "2 35135  98.5651 349.2636 0081083 303.4126  55.9315 14.22516018877320"}}, "geometry": {"type": "Point", "coordinates": [146.11150885369707, -69.27550183782787]}}, {"type": "Feature", "properties": {"norad_id": 35139, "name": "FENGYUN 1C DEB", "group": "fengyun-1c-debris", "lat": 17.016398978518584, "lon": -16.648482052862406, "alt_km": 798.422659590392, "timestamp": "2025-12-06T14:35:37.414010+00:00", "meta": {"OBJECT_NAME": "FENGYUN 1C DEB", "OBJECT_ID": "1999-025DLT", "EPOCH": "2025-11-29T06:46:18.583392", "MEAN_MOTION": 14.21054019, "ECCENTRICITY": 0.00685814, "INCLINATION": 98.5841, "RA_OF_ASC_NODE": 338.8823, "ARG_OF_PERICENTER": 336.9878, "MEAN_ANOMALY": 22.8231, "EPHEMERIS_TYPE": 0, "CLASSIFICATION_TYPE": "U", "NORAD_CAT_ID": 35139, "ELEMENT_SET_NO": 999, "REV_AT_EPOCH": 63962, "BSTAR": 0.00042081079, "MEAN_MOTION_DOT": 8.92e-06, "MEAN_MOTION_DDOT": 0}, "tle": {"line1": "1 35139U 99025DLT 25333.28215953  .00000892  00000+0  42081-3 0  9993", "line2": "2 35139  98.5841 338.8823 0068581 336.9878  22.8231 14.21054019639626"}}, "geometry": {"type": "Point", "coordinates": [-16.648482052862406, 17.016398978518584]}}]}